{"type": "FeatureCollection", "features": [ {"type": "Feature", "properties": {"norad_id": 34327, "name": "COSMOS 2251 DEB", "group": "cosmos-2251-debris", "lat": -7.427062549514038, "lon": 178.32707317565433, "alt_km": 581.9399351527518, "timestamp": "2025-12-08T10:52:03.342396+00:00", "meta": {"OBJECT_NAME": "COSMOS 2251 DEB", "OBJECT_ID": "1993-036NZ", "EPOCH": "2025-12-07T14:12:48.282336", "MEAN_MOTION": 14.8901371, "ECCENTRICITY": 0.00324671, "INCLINATION": 73.9934, "RA_OF_ASC_NODE": 182.1947, "ARG_OF_PERICENTER": 359.5584, "MEAN_ANOMALY": 61.6032, "EPHEMERIS_TYPE": 0, "CLASSIFICATION_TYPE": "U", "NORAD_CAT_ID": 34327, "ELEMENT_SET_NO": 999, "REV_AT_EPOCH": 89431, "BSTAR": 0.0019254929, "MEAN_MOTION_DOT": 0.00018313, "MEAN_MOTION_DDOT": 0}, "tle": {"line1": "1 34327U 93036NZ  25341.59222549  .00018313  00000+0  19255-2 0  9992", "line2": "2 34327  73.9934 182.1947 0032467 359.5584  61.6032 14.89013710894316"}}, "geometry": {"type": "Point", "coordinates": [178.32707317565433, -7.427062549514038]}}, {"type": "Feature", "properties": {"norad_id": 34340, "name": "COSMOS 2251 DEB", "group": "cosmos-2251-debris", "lat": 33.22835634621192, "lon": -34.07632272655642, "alt_km": 780.7455029055182, "timestamp": "2025-12-08T10:52:03.342407+00:00", "meta": {"OBJECT_NAME": "COSMOS 2251 DEB", "OBJECT_ID": "1993-036PN", "EPOCH": "2025-12-07T22:49:28.903008", "MEAN_MOTION": 13.79544342, "ECCENTRICITY": 0.02821352, "INCLINATION": 74.0788, "RA_OF_ASC_NODE": 315.9846, "ARG_OF_PERICENTER": 64.9533, "MEAN_ANOMALY": 0.318, "EPHEMERIS_TYPE": 0, "CLASSIFICATION_TYPE": "U", "NORAD_CAT_ID": 34340, "ELEMENT_SET_NO": 999, "REV_AT_EPOCH": 84202, "BSTAR": 0.0015800124, "MEAN_MOTION_DOT": 2.174e-05, "MEAN_MOTION_DDOT": 0}, "tle": {"line1": "1 34340U 93036PN  25341.95102897  .00002174  00000+0  15800-2 0  9990", "line2": "2 34340  74.0788 315.9846 0282135  64.9533   0.3180 13.79544342842027"}}, "geometry": {"type": "Point", "coordinates": [-34.07632272655642, 33.22835634621192]}}, {"type": "Feature", "properties": {"norad_id": 34343, "name": "COSMOS 2251 DEB", "group": "cosmos-2251-debris", "lat": 14.715404581374028, "lon": -86.44925647848329, "alt_km": 677.7726217196023, "timestamp": "2025-12-08T10:52:03.342417+00:00", "meta": {"OBJECT_NAME": "COSMOS 2251 DEB", "OBJECT_ID": "1993-036PR", "EPOCH": "2025-12-07T18:20:32.889120", "MEAN_MOTION": 14.69307147, "ECCENTRICITY": 0.00229262, "INCLINATION": 74.0206, "RA_OF_ASC_NODE": 99.2009, "ARG_OF_PERICENTER": 15.7902, "MEAN_ANOMALY": 108.0562, "EPHEMERIS_TYPE": 0, "CLASSIFICATION_TYPE": "U", "NORAD_CAT_ID": 34343, "ELEMENT_SET_NO": 999, "REV_AT_EPOCH": 88657, "BSTAR": 0.0026894759, "MEAN_MOTION_DOT": 0.00015948, "MEAN_MOTION_DDOT": 0}, "tle": {"line1": "1 34343U 93036PR  25341.76426955  .00015948  00000+0  26895-2 0  9995", "line2": "2 34343  74.0206  99.2009 0022926  15.7902 108.0562 14.69307147886570"}}, "geometry": {"type": "Point", "coordinates": [-86.44925647848329, 14.715404581374028]}}, {"type": "Feature", "properties": {"norad_id": 34344, "name": "COSMOS 2251 DEB", "group": "cosmos-2251-debris", "lat": 3.883720871677584, "lon": 119.11861610890695, "alt_km": 784.2721733873605, "timestamp": "2025-12-08T10:52:03.342427+00:00", "meta": {"OBJECT_NAME": "COSMOS 2251 DEB", "OBJECT_ID": "1993-036PS", "EPOCH": "2025-12-07T20:11:30.163776", "MEAN_MOTION": 14.16354157, "ECCENTRICITY": 0.01554992, "INCLINATION": 73.978, "RA_OF_ASC_NODE": 119.0919, "ARG_OF_PERICENTER": 304.2343, "MEAN_ANOMALY": 181.6516, "EPHEMERIS_TYPE": 0, "CLASSIFICATION_TYPE": "U", "NORAD_CAT_ID": 34344, "ELEMENT_SET_NO": 999, "REV_AT_EPOCH": 86027, "BSTAR": 0.0020208032, "MEAN_MOTION_DOT": 4.49e-05, "MEAN_MOTION_DDOT": 0}, "tle": {"line1": "1 34344U 93036PS  25341.84132134  .00004490  00000+0  20208-2 0  9990", "line2": "2 34344  73.9780 119.0919 0155499 304.2343 181.6516 14.16354157860274"}}, "geometry": {"type": "Point", "coordinates": [119.11861610890695, 3.883720871677584]}}, {"type": "Feature", "properties": {"norad_id": 34346, "name": "COSMOS 2251 DEB", "group": "cosmos-2251-debris", "lat": 10.103516356661594, "lon": -37.38266847138902, "alt_km": 988.7886308594434, "timestamp": "2025-12-08T10:52:03.342438+00:00", "meta": {"OBJECT_NAME": "COSMOS 2251 DEB", "OBJECT_ID": "1993-036PU", "EPOCH": "2025-12-07T00:49:29.611200", "MEAN_MOTION": 13.99667503, "ECCENTRICITY": 0.02064856, "INCLINATION": 73.9953, "RA_OF_ASC_NODE": 322.1459, "ARG_OF_PERICENTER": 142.4329, "MEAN_ANOMALY": 285.5331, "EPHEMERIS_TYPE": 0, "CLASSIFICATION_TYPE": "U", "NORAD_CAT_ID": 34346, "ELEMENT_SET_NO": 999, "REV_AT_EPOCH": 85330, "BSTAR": 0.0012980505, "MEAN_MOTION_DOT": 2.259e-05, "MEAN_MOTION_DDOT": 0}, "tle": {"line1": "1 34346U 93036PU  25341.03437050  .00002259  00000+0  12981-2 0  9998", "line2": "2 34346  73.9953 322.1459 0206485 142.4329 285.5331 13.99667503853309"}}, "geometry": {"type": "Point", "coordinates": [-37.38266847138902, 10.103516356661594]}}, {"type": "Feature", "properties": {"norad_id": 34383, "name": "COSMOS 2251 DEB", "group": "cosmos-2251-debris", "lat": -29.42742405353264, "lon": -62.76222094613931, "alt_km": 545.9042737409654, "timestamp": "2025-12-08T10:52:03.342448+00:00", "meta": {"OBJECT_NAME": "COSMOS 2251 DEB", "OBJECT_ID": "1993-036PY", "EPOCH": "2025-12-07T22:32:19.886784", "MEAN_MOTION": 15.08319641, "ECCENTRICITY": 0.00027196, "INCLINATION": 74.0224, "RA_OF_ASC_NODE": 307.5971, "ARG_OF_PERICENTER": 34.5311, "MEAN_ANOMALY": 26.6528, "EPHEMERIS_TYPE": 0, "CLASSIFICATION_TYPE": "U", "NORAD_CAT_ID": 34383, "ELEMENT_SET_NO": 999, "REV_AT_EPOCH": 89041, "BSTAR": 0.0040959285, "MEAN_MOTION_DOT": 0.00064128, "MEAN_MOTION_DDOT": 0}, "tle": {"line1": "1 34383U 93036PY  25341.93911906  .00064128  00000+0  40959-2 0  9994", "line2": "2 34383  74.0224 307.5971 0002719  34.5311  26.6528 15.08319641890419"}}, "geometry": {"type": "Point", "coordinates": [-62.76222094613931, -29.42742405353264]}}, {"type": "Feature", "properties": {"norad_id": 34387, "name": "COSMOS 2251 DEB", "group": "cosmos-2251-debris", "lat": -5.573900949836839, "lon": 41.463348741747666, "alt_km": 767.5694716677835, "timestamp": "2025-12-08T10:52:03.342533+00:00", "meta": {"OBJECT_NAME": "COSMOS 2251 DEB", "OBJECT_ID": "1993-036QC", "EPOCH": "2025-12-07T22:25:58.457568", "MEAN_MOTION": 14.43804125, "ECCENTRICITY": 0.00386583, "INCLINATION": 74.0397, "RA_OF_ASC_NODE": 220.8256, "ARG_OF_PERICENTER": 318.5713, "MEAN_ANOMALY": 55.5429, "EPHEMERIS_TYPE": 0, "CLASSIFICATION_TYPE": "U", "NORAD_CAT_ID": 34387, "ELEMENT_SET_NO": 999, "REV_AT_EPOCH": 88112, "BSTAR": 0.00047057653, "MEAN_MOTION_DOT": 1.59e-05, "MEAN_MOTION_DDOT": 0}, "tle": {"line1": "1 34387U 93036QC  25341.93470437  .00001590  00000+0  47058-3 0  9999", "line2": "2 34387  74.0397 220.8256 0038658 318.5713  55.5429 14.43804125881122"}}, "geometry": {"type": "Point", "coordinates": [41.463348741747666, -5.573900949836839]}}, {"type": "Feature", "properties": {"norad_id": 34388, "name": "COSMOS 2251 DEB", "group": "cosmos-2251-debris", "lat": 72.70273300650402, "lon": -62.07287062776007, "alt_km": 730.1935161138535, "timestamp": "2025-12-08T10:52:03.342547+00:00", "meta": {"OBJECT_NAME": "COSMOS 2251 DEB", "OBJECT_ID": "1993-036QD", "EPOCH": "2025-12-07T19:55:53.311296", "MEAN_MOTION": 14.49328381, "ECCENTRICITY": 0.00142198, "INCLINATION": 74.0392, "RA_OF_ASC_NODE": 232.3117, "ARG_OF_PERICENTER": 280.7489, "MEAN_ANOMALY": 156.7009, "EPHEMERIS_TYPE": 0, "CLASSIFICATION_TYPE": "U", "NORAD_CAT_ID": 34388, "ELEMENT_SET_NO": 999, "REV_AT_EPOCH": 88084, "BSTAR": 0.0012426293, "MEAN_MOTION_DOT": 4.727e-05, "MEAN_MOTION_DDOT": 0}, "tle": {"line1": "1 34388U 93036QD  25341.83047814  .00004727  00000+0  12426-2 0  9993", "line2": "2 34388  74.0392 232.3117 0014219 280.7489 156.7009 14.49328381880846"}}, "geometry": {"type": "Point", "coordinates": [-62.07287062776007, 72.70273300650402]}}, {"type": "Feature", "properties": {"norad_id": 34389, "name": "COSMOS 2251 DEB", "group": "cosmos-2251-debris", "lat": -43.92723605609097, "lon": 93.78649453436637, "alt_km": 776.4540331006583, "timestamp": "2025-12-08T10:52:03.342558+00:00", "meta": {"OBJECT_NAME": "COSMOS 2251 DEB", "OBJECT_ID": "1993-036QE", "EPOCH": "2025-12-07T20:48:02.900736", "MEAN_MOTION": 14.4151459, "ECCENTRICITY": 0.00286859, "INCLINATION": 74.0195, "RA_OF_ASC_NODE": 258.8495, "ARG_OF_PERICENTER": 11.8506, "MEAN_ANOMALY": 54.0496, "EPHEMERIS_TYPE": 0, "CLASSIFICATION_TYPE": "U", "NORAD_CAT_ID": 34389, "ELEMENT_SET_NO": 999, "REV_AT_EPOCH": 87942, "BSTAR": 0.00078421288, "MEAN_MOTION_DOT": 2.534e-05, "MEAN_MOTION_DDOT": 0}, "tle": {"line1": "1 34389U 93036QE  25341.86670024  .00002534  00000+0  78421-3 0  9994", "line2": "2 34389  74.0195 258.8495 0028685  11.8506  54.0496 14.41514590879428"}}, "geometry": {"type": "Point", "coordinates": [93.78649453436637, -43.92723605609097]}}, {"type": "Feature", "properties": {"norad_id": 34396, "name": "COSMOS 2251 DEB", "group": "cosmos-2251-debris", "lat": 4.575111913746868, "lon": 133.71836362820716, "alt_km": 654.2109724640268, "timestamp": "2025-12-08T10:52:03.342569+00:00", "meta": {"OBJECT_NAME": "COSMOS 2251 DEB", "OBJECT_ID": "1993-036QM", "EPOCH": "2025-12-07T20:45:04.775040", "MEAN_MOTION": 14.74210247, "ECCENTRICITY": 0.00066482, "INCLINATION": 74.0292, "RA_OF_ASC_NODE": 133.5532, "ARG_OF_PERICENTER": 177.0937, "MEAN_ANOMALY": 307.5072, "EPHEMERIS_TYPE": 0, "CLASSIFICATION_TYPE": "U", "NORAD_CAT_ID": 34396, "ELEMENT_SET_NO": 999, "REV_AT_EPOCH": 88274, "BSTAR": 0.0040944259, "MEAN_MOTION_DOT": 0.00027135, "MEAN_MOTION_DDOT": 0}, "tle": {"line1": "1 34396U 93036QM  25341.86463860  .00027135  00000+0  40944-2 0  9992", "line2": "2 34396  74.0292 133.5532 0006648 177.0937 307.5072 14.74210247882746"}}, "geometry": {"type": "Point", "coordinates": [133.71836362820716, 4.575111913746868]}}]}